DELTA 2 R/B(1)          
1 20453U 90008B   26022.59525487  .00068158  00000+0  96295-3 0  9999
2 20453  35.6055 115.8991 0100745 192.0602 167.7714 15.49568231918961
COSMOS 2058             
1 20465U 90010A   26022.55998233  .00004675  00000+0  27879-3 0  9990
2 20465  82.4659  92.8706 0011215 127.3731 232.8522 15.10888131935275
SL-14 R/B               
1 20466U 90010B   26022.75514278  .00000876  00000+0  10314-3 0  9991
2 20466  82.5045 310.5306 0021419  91.0267 269.3402 14.83519994921678
SL-14 R/B               
1 20511U 90018B   26022.93116677  .00000734  00000+0  89324-4 0  9992
2 20511  82.5203 265.8684 0015038 240.4279 119.5437 14.82095553915800
HST                     
1 20580U 90037B   26022.60370174  .00009480  00000+0  32216-3 0  9991
2 20580  28.4683 354.2106 0001643 324.2184  35.8301 15.28686855766257
SL-16 R/B               
1 20625U 90046B   26022.46468212 -.00000137  00000+0 -46199-4 0  9994
2 20625  70.9994  34.9929 0013894   4.1270 355.9965 14.15007922841859
COSMOS 2084             
1 20663U 90055A   26022.69199182  .00004398  00000+0  31767-3 0  9993
2 20663  62.7907 132.4244 0024676 181.0690 179.0362 15.05325144929390
SL-6 R/B(2)             
1 20666U 90055D   26022.47953491  .00003890  00000+0  29880-3 0  9992
2 20666  62.7836  50.9636 0018070 332.1988  27.8143 15.03313022931247
SL-8 R/B                
1 20775U 90078B   26022.99088791  .00018075  00000+0  54211-3 0  9994
2 20775  82.9049 292.3538 0368338 167.0998 193.9974 14.87429216802509
SL-8 R/B                
1 21088U 91006B   26022.95459517  .00000021  00000+0  50834-5 0  9999
2 21088  82.9410 204.0537 0022849 160.5280 353.5457 13.77491951757775
OKEAN-3                 
1 21397U 91039A   26022.99091688  .00004184  00000+0  29688-3 0  9998
2 21397  82.5157  21.1024 0015904 121.3273 238.9513 15.04413623858168
COSMOS 2151             
1 21422U 91042A   26022.92166074  .00003405  00000+0  27215-3 0  9995
2 21422  82.4983 127.8154 0011959 208.2393 151.8184 14.99898039856330
