CCSDS_OMM_VERS = 2.0
CREATION_DATE  = 
ORIGINATOR     = 

OBJECT_NAME    = DELTA 2 R/B(1)
OBJECT_ID      = 1990-008B
CENTER_NAME    = EARTH
REF_FRAME      = TEME
TIME_SYSTEM    = UTC
MEAN_ELEMENT_THEORY = SGP/SGP4

EPOCH          = 2026-01-22T14:17:10.020768
MEAN_MOTION    = 15.49568231
ECCENTRICITY   = .0100745
INCLINATION    = 35.6055
RA_OF_ASC_NODE = 115.8991
ARG_OF_PERICENTER = 192.0602
MEAN_ANOMALY   = 167.7714

EPHEMERIS_TYPE = 0
CLASSIFICATION_TYPE = U
NORAD_CAT_ID   = 20453
ELEMENT_SET_NO = 999
REV_AT_EPOCH   = 91896
BSTAR          = .96295391E-3
MEAN_MOTION_DOT = .68158E-3
MEAN_MOTION_DDOT = 0

CCSDS_OMM_VERS = 2.0
CREATION_DATE  = 
ORIGINATOR     = 

OBJECT_NAME    = COSMOS 2058
OBJECT_ID      = 1990-010A
CENTER_NAME    = EARTH
REF_FRAME      = TEME
TIME_SYSTEM    = UTC
MEAN_ELEMENT_THEORY = SGP/SGP4

EPOCH          = 2026-01-22T13:26:22.473312
MEAN_MOTION    = 15.10888131
ECCENTRICITY   = .00112153
INCLINATION    = 82.4659
RA_OF_ASC_NODE = 92.8706
ARG_OF_PERICENTER = 127.3731
MEAN_ANOMALY   = 232.8522

EPHEMERIS_TYPE = 0
CLASSIFICATION_TYPE = U
NORAD_CAT_ID   = 20465
ELEMENT_SET_NO = 999
REV_AT_EPOCH   = 93527
BSTAR          = .27878693E-3
MEAN_MOTION_DOT = .4675E-4
MEAN_MOTION_DDOT = 0

CCSDS_OMM_VERS = 2.0
CREATION_DATE  = 
ORIGINATOR     = 

OBJECT_NAME    = SL-14 R/B
OBJECT_ID      = 1990-010B
CENTER_NAME    = EARTH
REF_FRAME      = TEME
TIME_SYSTEM    = UTC
MEAN_ELEMENT_THEORY = SGP/SGP4

EPOCH          = 2026-01-22T18:07:24.336192
MEAN_MOTION    = 14.83519994
ECCENTRICITY   = .00214199
INCLINATION    = 82.5045
RA_OF_ASC_NODE = 310.5306
ARG_OF_PERICENTER = 91.0267
MEAN_ANOMALY   = 269.3402

EPHEMERIS_TYPE = 0
CLASSIFICATION_TYPE = U
NORAD_CAT_ID   = 20466
ELEMENT_SET_NO = 999
REV_AT_EPOCH   = 92167
BSTAR          = .10314229E-3
MEAN_MOTION_DOT = .876E-5
MEAN_MOTION_DDOT = 0

CCSDS_OMM_VERS = 2.0
CREATION_DATE  = 
ORIGINATOR     = 

OBJECT_NAME    = SL-14 R/B
OBJECT_ID      = 1990-018B
CENTER_NAME    = EARTH
REF_FRAME      = TEME
TIME_SYSTEM    = UTC
MEAN_ELEMENT_THEORY = SGP/SGP4

EPOCH          = 2026-01-22T22:20:52.808928
MEAN_MOTION    = 14.82095553
ECCENTRICITY   = .00150382
INCLINATION    = 82.5203
RA_OF_ASC_NODE = 265.8684
ARG_OF_PERICENTER = 240.4279
MEAN_ANOMALY   = 119.5437

EPHEMERIS_TYPE = 0
CLASSIFICATION_TYPE = U
NORAD_CAT_ID   = 20511
ELEMENT_SET_NO = 999
REV_AT_EPOCH   = 91580
BSTAR          = .89323719E-4
MEAN_MOTION_DOT = .734E-5
MEAN_MOTION_DDOT = 0

CCSDS_OMM_VERS = 2.0
CREATION_DATE  = 
ORIGINATOR     = 

OBJECT_NAME    = HST
OBJECT_ID      = 1990-037B
CENTER_NAME    = EARTH
REF_FRAME      = TEME
TIME_SYSTEM    = UTC
MEAN_ELEMENT_THEORY = SGP/SGP4

EPOCH          = 2026-01-22T14:29:19.830336
MEAN_MOTION    = 15.28686855
ECCENTRICITY   = .0001643
INCLINATION    = 28.4683
RA_OF_ASC_NODE = 354.2106
ARG_OF_PERICENTER = 324.2184
MEAN_ANOMALY   = 35.8301

EPHEMERIS_TYPE = 0
CLASSIFICATION_TYPE = U
NORAD_CAT_ID   = 20580
ELEMENT_SET_NO = 999
REV_AT_EPOCH   = 76625
BSTAR          = .32216375E-3
MEAN_MOTION_DOT = .948E-4
MEAN_MOTION_DDOT = 0

CCSDS_OMM_VERS = 2.0
CREATION_DATE  = 
ORIGINATOR     = 

OBJECT_NAME    = SL-16 R/B
OBJECT_ID      = 1990-046B
CENTER_NAME    = EARTH
REF_FRAME      = TEME
TIME_SYSTEM    = UTC
MEAN_ELEMENT_THEORY = SGP/SGP4

EPOCH          = 2026-01-22T11:09:08.535168
MEAN_MOTION    = 14.15007922
ECCENTRICITY   = .00138949
INCLINATION    = 70.9994
RA_OF_ASC_NODE = 34.9929
ARG_OF_PERICENTER = 4.1270
MEAN_ANOMALY   = 355.9965

EPHEMERIS_TYPE = 0
CLASSIFICATION_TYPE = U
NORAD_CAT_ID   = 20625
ELEMENT_SET_NO = 999
REV_AT_EPOCH   = 84185
BSTAR          = -.4619915E-4
MEAN_MOTION_DOT = -.137E-5
MEAN_MOTION_DDOT = 0

CCSDS_OMM_VERS = 2.0
CREATION_DATE  = 
ORIGINATOR     = 

OBJECT_NAME    = COSMOS 2084
OBJECT_ID      = 1990-055A
CENTER_NAME    = EARTH
REF_FRAME      = TEME
TIME_SYSTEM    = UTC
MEAN_ELEMENT_THEORY = SGP/SGP4

EPOCH          = 2026-01-22T16:36:28.093248
MEAN_MOTION    = 15.05325144
ECCENTRICITY   = .00246765
INCLINATION    = 62.7907
RA_OF_ASC_NODE = 132.4244
ARG_OF_PERICENTER = 181.0690
MEAN_ANOMALY   = 179.0362

EPHEMERIS_TYPE = 0
CLASSIFICATION_TYPE = U
NORAD_CAT_ID   = 20663
ELEMENT_SET_NO = 999
REV_AT_EPOCH   = 92939
BSTAR          = .31767246E-3
MEAN_MOTION_DOT = .4398E-4
MEAN_MOTION_DDOT = 0

CCSDS_OMM_VERS = 2.0
CREATION_DATE  = 
ORIGINATOR     = 

OBJECT_NAME    = SL-6 R/B(2)
OBJECT_ID      = 1990-055D
CENTER_NAME    = EARTH
REF_FRAME      = TEME
TIME_SYSTEM    = UTC
MEAN_ELEMENT_THEORY = SGP/SGP4

EPOCH          = 2026-01-22T11:30:31.816224
MEAN_MOTION    = 15.03313022
ECCENTRICITY   = .00180703
INCLINATION    = 62.7836
RA_OF_ASC_NODE = 50.9636
ARG_OF_PERICENTER = 332.1988
MEAN_ANOMALY   = 27.8143

EPHEMERIS_TYPE = 0
CLASSIFICATION_TYPE = U
NORAD_CAT_ID   = 20666
ELEMENT_SET_NO = 999
REV_AT_EPOCH   = 93124
BSTAR          = .29879576E-3
MEAN_MOTION_DOT = .389E-4
MEAN_MOTION_DDOT = 0

CCSDS_OMM_VERS = 2.0
CREATION_DATE  = 
ORIGINATOR     = 

OBJECT_NAME    = SL-8 R/B
OBJECT_ID      = 1990-078B
CENTER_NAME    = EARTH
REF_FRAME      = TEME
TIME_SYSTEM    = UTC
MEAN_ELEMENT_THEORY = SGP/SGP4

EPOCH          = 2026-01-22T23:46:52.715424
MEAN_MOTION    = 14.87429216
ECCENTRICITY   = .03683385
INCLINATION    = 82.9049
RA_OF_ASC_NODE = 292.3538
ARG_OF_PERICENTER = 167.0998
MEAN_ANOMALY   = 193.9974

EPHEMERIS_TYPE = 0
CLASSIFICATION_TYPE = U
NORAD_CAT_ID   = 20775
ELEMENT_SET_NO = 999
REV_AT_EPOCH   = 80250
BSTAR          = .54211299E-3
MEAN_MOTION_DOT = .18075E-3
MEAN_MOTION_DDOT = 0

CCSDS_OMM_VERS = 2.0
CREATION_DATE  = 
ORIGINATOR     = 

OBJECT_NAME    = SL-8 R/B
OBJECT_ID      = 1991-006B
CENTER_NAME    = EARTH
REF_FRAME      = TEME
TIME_SYSTEM    = UTC
MEAN_ELEMENT_THEORY = SGP/SGP4

EPOCH          = 2026-01-22T22:54:37.022688
MEAN_MOTION    = 13.77491951
ECCENTRICITY   = .00228494
INCLINATION    = 82.9410
RA_OF_ASC_NODE = 204.0537
ARG_OF_PERICENTER = 160.5280
MEAN_ANOMALY   = 353.5457

EPHEMERIS_TYPE = 0
CLASSIFICATION_TYPE = U
NORAD_CAT_ID   = 21088
ELEMENT_SET_NO = 999
REV_AT_EPOCH   = 75777
BSTAR          = .5083358E-5
MEAN_MOTION_DOT = .21E-6
MEAN_MOTION_DDOT = 0

CCSDS_OMM_VERS = 2.0
CREATION_DATE  = 
ORIGINATOR     = 

OBJECT_NAME    = OKEAN-3
OBJECT_ID      = 1991-039A
CENTER_NAME    = EARTH
REF_FRAME      = TEME
TIME_SYSTEM    = UTC
MEAN_ELEMENT_THEORY = SGP/SGP4

EPOCH          = 2026-01-22T23:46:55.218432
MEAN_MOTION    = 15.04413623
ECCENTRICITY   = .00159042
INCLINATION    = 82.5157
RA_OF_ASC_NODE = 21.1024
ARG_OF_PERICENTER = 121.3273
MEAN_ANOMALY   = 238.9513

EPHEMERIS_TYPE = 0
CLASSIFICATION_TYPE = U
NORAD_CAT_ID   = 21397
ELEMENT_SET_NO = 999
REV_AT_EPOCH   = 85816
BSTAR          = .29687878E-3
MEAN_MOTION_DOT = .4184E-4
MEAN_MOTION_DDOT = 0

CCSDS_OMM_VERS = 2.0
CREATION_DATE  = 
ORIGINATOR     = 

OBJECT_NAME    = COSMOS 2151
OBJECT_ID      = 1991-042A
CENTER_NAME    = EARTH
REF_FRAME      = TEME
TIME_SYSTEM    = UTC
MEAN_ELEMENT_THEORY = SGP/SGP4

EPOCH          = 2026-01-22T22:07:11.487936
MEAN_MOTION    = 14.99898039
ECCENTRICITY   = .00119598
INCLINATION    = 82.4983
RA_OF_ASC_NODE = 127.8154
ARG_OF_PERICENTER = 208.2393
MEAN_ANOMALY   = 151.8184

EPHEMERIS_TYPE = 0
CLASSIFICATION_TYPE = U
NORAD_CAT_ID   = 21422
ELEMENT_SET_NO = 999
REV_AT_EPOCH   = 85633
BSTAR          = .27214661E-3
MEAN_MOTION_DOT = .3405E-4
MEAN_MOTION_DDOT = 0

